{
    "CCSDS_OMM_VERS": "3.0",
    "COMMENT": "GENERATED VIA SPACE-TRACK.ORG API",
    "CREATION_DATE": "2025-11-23T23:06:32",
    "ORIGINATOR": "18 SPCS",
    "OBJECT_NAME": "GALILEO 12 (269)",
    "OBJECT_ID": "2015-079A",
    "CENTER_NAME": "EARTH",
    "REF_FRAME": "TEME",
    "TIME_SYSTEM": "UTC",
    "MEAN_ELEMENT_THEORY": "SGP4",
    "EPOCH": "2025-11-23T03:32:58.718112",
    "MEAN_MOTION": "1.70474429",
    "ECCENTRICITY": "0.00023440",
    "INCLINATION": "55.7006",
    "RA_OF_ASC_NODE": "106.9188",
    "ARG_OF_PERICENTER": "2.0968",
    "MEAN_ANOMALY": "357.8685",
    "EPHEMERIS_TYPE": "0",
    "CLASSIFICATION_TYPE": "U",
    "NORAD_CAT_ID": "41174",
    "ELEMENT_SET_NO": "999",
    "REV_AT_EPOCH": "6126",
    "BSTAR": "0.00000000000000",
    "MEAN_MOTION_DOT": "0.00000037",
    "MEAN_MOTION_DDOT": "0.0000000000000",
    "SEMIMAJOR_AXIS": "29600.270",
    "PERIOD": "844.701",
    "APOAPSIS": "23229.074",
    "PERIAPSIS": "23215.197",
    "OBJECT_TYPE": "PAYLOAD",
    "RCS_SIZE": "LARGE",
    "COUNTRY_CODE": "ESA",
    "LAUNCH_DATE": "2015-12-17",
    "SITE": "FRGUI",
    "DECAY_DATE": null,
    "FILE": "4896363",
    "GP_ID": "303352394",
    "TLE_LINE0": "0 GALILEO 12 (269)",
    "TLE_LINE1": "1 41174U 15079A   25327.14790183  .00000037  00000-0  00000+0 0  9990",
    "TLE_LINE2": "2 41174  55.7006 106.9188 0002344   2.0968 357.8685  1.70474429 61268"
}